ONEWEB-0275             
1 48993U 21060AC  26118.29942108  .00000021  00000+0  21644-4 0  9998
2 48993  87.9082 238.6822 0001983 100.2303 259.9052 13.16595276232992
ONEWEB-0276             
1 48994U 21060AD  26118.25668658  .00000086  00000+0  19215-3 0  9991
2 48994  87.9085 238.6911 0002089 103.0976 257.0389 13.16595481233003
ONEWEB-0277             
1 48995U 21060AE  26118.26935167  .00000051  00000+0  99737-4 0  9995
2 48995  87.9080 238.6997 0001901  96.4884 263.6464 13.16594748232997
ONEWEB-0278             
1 48996U 21060AF  26118.25985326  .00000095  00000+0  21437-3 0  9996
2 48996  87.9087 238.6883 0001696 106.0333 254.0985 13.16594215233124
ONEWEB-0279             
1 48997U 21060AG  26118.26775918  .00000031  00000+0  47728-4 0  9994
2 48997  87.9085 238.6853 0002061  95.6148 264.5218 13.16595731233055
ONEWEB-0280             
1 48998U 21060AH  26118.28279971  .00000037  00000+0  63304-4 0  9999
2 48998  87.9084 238.6868 0001583  94.6706 265.4606 13.16593589232990
ONEWEB-0281             
1 48999U 21060AJ  26118.28834632 -.00000004  00000+0 -43544-4 0  9991
2 48999  87.9086 238.6804 0001864 103.1205 257.0134 13.16598326233061
ONEWEB-0282             
1 49000U 21060AK  26118.31843629  .00000196  00000+0  47999-3 0  9992
2 49000  87.9081 238.6842 0001859  97.0702 263.0640 13.16594700233048
ONEWEB-0283             
1 49001U 21060AL  26118.30734540  .00000068  00000+0  14334-3 0  9998
2 49001  87.9080 238.6860 0001995  97.8986 262.2371 13.16594472233050
ONEWEB-0284             
1 49002U 21060AM  26118.30101089  .00000020  00000+0  18490-4 0  9991
2 49002  87.9083 238.6796 0001552 100.1898 259.9408 13.16594726233035
ONEWEB-0285             
1 49075U 21075A   26118.12493083  .00000478  00000+0  12941-2 0  9995
2 49075  87.8995   0.6101 0001760  78.3265 281.8061 13.12442529228647
ONEWEB-0286             
1 49076U 21075B   26118.18323983  .00000212  00000+0  55463-3 0  9996
2 49076  87.8984   0.6203 0001739  87.8606 272.2721 13.12443880228007
ONEWEB-0287             
1 49077U 21075C   26118.27658919  .00000002  00000+0 -29074-4 0  9995
2 49077  87.9183  15.7838 0001603  93.5634 266.5681 13.17648237227059
ONEWEB-0288             
1 49078U 21075D   26118.08340137 -.00000548  00000+0 -15593-2 0  9990
2 49078  87.8994   0.6116 0001523  83.9711 276.1591 13.12443499228619
ONEWEB-0289             
1 49079U 21075E   26118.23933017  .00000081  00000+0  17577-3 0  9998
2 49079  87.9186  15.8058 0001591  67.6284 292.5016 13.17648826227626
ONEWEB-0290             
1 49080U 21075F   26118.21246447  .00000057  00000+0  11335-3 0  9991
2 49080  87.9190  15.7812 0001640  63.0904 297.0395 13.17651913227030
