[{"OBJECT_NAME":"ONEWEB-0275","OBJECT_ID":"2021-060AC","EPOCH":"2026-04-28T07:11:09.981312","MEAN_MOTION":13.16595276,"ECCENTRICITY":0.0001983,"INCLINATION":87.9082,"RA_OF_ASC_NODE":238.6822,"ARG_OF_PERICENTER":100.2303,"MEAN_ANOMALY":259.9052,"EPHEMERIS_TYPE":0,"CLASSIFICATION_TYPE":"U","NORAD_CAT_ID":48993,"ELEMENT_SET_NO":999,"REV_AT_EPOCH":23299,"BSTAR":2.1644e-05,"MEAN_MOTION_DOT":2.1e-07,"MEAN_MOTION_DDOT":0.0},{"OBJECT_NAME":"ONEWEB-0276","OBJECT_ID":"2021-060AD","EPOCH":"2026-04-28T06:09:37.720512","MEAN_MOTION":13.16595481,"ECCENTRICITY":0.0002089,"INCLINATION":87.9085,"RA_OF_ASC_NODE":238.6911,"ARG_OF_PERICENTER":103.0976,"MEAN_ANOMALY":257.0389,"EPHEMERIS_TYPE":0,"CLASSIFICATION_TYPE":"U","NORAD_CAT_ID":48994,"ELEMENT_SET_NO":999,"REV_AT_EPOCH":23300,"BSTAR":0.00019214999999999998,"MEAN_MOTION_DOT":8.6e-07,"MEAN_MOTION_DDOT":0.0},{"OBJECT_NAME":"ONEWEB-0277","OBJECT_ID":"2021-060AE","EPOCH":"2026-04-28T06:27:51.984288","MEAN_MOTION":13.16594748,"ECCENTRICITY":0.0001901,"INCLINATION":87.908,"RA_OF_ASC_NODE":238.6997,"ARG_OF_PERICENTER":96.4884,"MEAN_ANOMALY":263.6464,"EPHEMERIS_TYPE":0,"CLASSIFICATION_TYPE":"U","NORAD_CAT_ID":48995,"ELEMENT_SET_NO":999,"REV_AT_EPOCH":23299,"BSTAR":9.9737e-05,"MEAN_MOTION_DOT":5.1e-07,"MEAN_MOTION_DDOT":0.0},{"OBJECT_NAME":"ONEWEB-0278","OBJECT_ID":"2021-060AF","EPOCH":"2026-04-28T06:14:11.321664","MEAN_MOTION":13.16594215,"ECCENTRICITY":0.0001696,"INCLINATION":87.9087,"RA_OF_ASC_NODE":238.6883,"ARG_OF_PERICENTER":106.0333,"MEAN_ANOMALY":254.0985,"EPHEMERIS_TYPE":0,"CLASSIFICATION_TYPE":"U","NORAD_CAT_ID":48996,"ELEMENT_SET_NO":999,"REV_AT_EPOCH":23312,"BSTAR":0.00021437000000000002,"MEAN_MOTION_DOT":9.5e-07,"MEAN_MOTION_DDOT":0.0},{"OBJECT_NAME":"ONEWEB-0279","OBJECT_ID":"2021-060AG","EPOCH":"2026-04-28T06:25:34.393152","MEAN_MOTION":13.16595731,"ECCENTRICITY":0.0002061,"INCLINATION":87.9085,"RA_OF_ASC_NODE":238.6853,"ARG_OF_PERICENTER":95.6148,"MEAN_ANOMALY":264.5218,"EPHEMERIS_TYPE":0,"CLASSIFICATION_TYPE":"U","NORAD_CAT_ID":48997,"ELEMENT_SET_NO":999,"REV_AT_EPOCH":23305,"BSTAR":4.7728e-05,"MEAN_MOTION_DOT":3.1e-07,"MEAN_MOTION_DDOT":0.0},{"OBJECT_NAME":"ONEWEB-0280","OBJECT_ID":"2021-060AH","EPOCH":"2026-04-28T06:47:13.894944","MEAN_MOTION":13.16593589,"ECCENTRICITY":0.0001583,"INCLINATION":87.9084,"RA_OF_ASC_NODE":238.6868,"ARG_OF_PERICENTER":94.6706,"MEAN_ANOMALY":265.4606,"EPHEMERIS_TYPE":0,"CLASSIFICATION_TYPE":"U","NORAD_CAT_ID":48998,"ELEMENT_SET_NO":999,"REV_AT_EPOCH":23299,"BSTAR":6.3304e-05,"MEAN_MOTION_DOT":3.7e-07,"MEAN_MOTION_DDOT":0.0},{"OBJECT_NAME":"ONEWEB-0281","OBJECT_ID":"2021-060AJ","EPOCH":"2026-04-28T06:55:13.122048","MEAN_MOTION":13.16598326,"ECCENTRICITY":0.0001864,"INCLINATION":87.9086,"RA_OF_ASC_NODE":238.6804,"ARG_OF_PERICENTER":103.1205,"MEAN_ANOMALY":257.0134,"EPHEMERIS_TYPE":0,"CLASSIFICATION_TYPE":"U","NORAD_CAT_ID":48999,"ELEMENT_SET_NO":999,"REV_AT_EPOCH":23306,"BSTAR":-4.3544e-05,"MEAN_MOTION_DOT":-4e-08,"MEAN_MOTION_DDOT":0.0},{"OBJECT_NAME":"ONEWEB-0282","OBJECT_ID":"2021-060AK","EPOCH":"2026-04-28T07:38:32.895456","MEAN_MOTION":13.165947,"ECCENTRICITY":0.0001859,"INCLINATION":87.9081,"RA_OF_ASC_NODE":238.6842,"ARG_OF_PERICENTER":97.0702,"MEAN_ANOMALY":263.064,"EPHEMERIS_TYPE":0,"CLASSIFICATION_TYPE":"U","NORAD_CAT_ID":49000,"ELEMENT_SET_NO":999,"REV_AT_EPOCH":23304,"BSTAR":0.00047999,"MEAN_MOTION_DOT":1.96e-06,"MEAN_MOTION_DDOT":0.0},{"OBJECT_NAME":"ONEWEB-0283","OBJECT_ID":"2021-060AL","EPOCH":"2026-04-28T07:22:34.642560","MEAN_MOTION":13.16594472,"ECCENTRICITY":0.0001995,"INCLINATION":87.908,"RA_OF_ASC_NODE":238.686,"ARG_OF_PERICENTER":97.8986,"MEAN_ANOMALY":262.2371,"EPHEMERIS_TYPE":0,"CLASSIFICATION_TYPE":"U","NORAD_CAT_ID":49001,"ELEMENT_SET_NO":999,"REV_AT_EPOCH":23305,"BSTAR":0.00014334,"MEAN_MOTION_DOT":6.8e-07,"MEAN_MOTION_DDOT":0.0},{"OBJECT_NAME":"ONEWEB-0284","OBJECT_ID":"2021-060AM","EPOCH":"2026-04-28T07:13:27.340896","MEAN_MOTION":13.16594726,"ECCENTRICITY":0.0001552,"INCLINATION":87.9083,"RA_OF_ASC_NODE":238.6796,"ARG_OF_PERICENTER":100.1898,"MEAN_ANOMALY":259.9408,"EPHEMERIS_TYPE":0,"CLASSIFICATION_TYPE":"U","NORAD_CAT_ID":49002,"ELEMENT_SET_NO":999,"REV_AT_EPOCH":23303,"BSTAR":1.849e-05,"MEAN_MOTION_DOT":2e-07,"MEAN_MOTION_DDOT":0.0},{"OBJECT_NAME":"ONEWEB-0285","OBJECT_ID":"2021-075A","EPOCH":"2026-04-28T02:59:54.023712","MEAN_MOTION":13.12442529,"ECCENTRICITY":0.000176,"INCLINATION":87.8995,"RA_OF_ASC_NODE":0.6101,"ARG_OF_PERICENTER":78.3265,"MEAN_ANOMALY":281.8061,"EPHEMERIS_TYPE":0,"CLASSIFICATION_TYPE":"U","NORAD_CAT_ID":49075,"ELEMENT_SET_NO":999,"REV_AT_EPOCH":22864,"BSTAR":0.0012941,"MEAN_MOTION_DOT":4.78e-06,"MEAN_MOTION_DDOT":0.0},{"OBJECT_NAME":"ONEWEB-0286","OBJECT_ID":"2021-075B","EPOCH":"2026-04-28T04:23:51.921312","MEAN_MOTION":13.1244388,"ECCENTRICITY":0.0001739,"INCLINATION":87.8984,"RA_OF_ASC_NODE":0.6203,"ARG_OF_PERICENTER":87.8606,"MEAN_ANOMALY":272.2721,"EPHEMERIS_TYPE":0,"CLASSIFICATION_TYPE":"U","NORAD_CAT_ID":49076,"ELEMENT_SET_NO":999,"REV_AT_EPOCH":22800,"BSTAR":0.00055463,"MEAN_MOTION_DOT":2.12e-06,"MEAN_MOTION_DDOT":0.0},{"OBJECT_NAME":"ONEWEB-0287","OBJECT_ID":"2021-075C","EPOCH":"2026-04-28T06:38:17.306016","MEAN_MOTION":13.17648237,"ECCENTRICITY":0.0001603,"INCLINATION":87.9183,"RA_OF_ASC_NODE":15.7838,"ARG_OF_PERICENTER":93.5634,"MEAN_ANOMALY":266.5681,"EPHEMERIS_TYPE":0,"CLASSIFICATION_TYPE":"U","NORAD_CAT_ID":49077,"ELEMENT_SET_NO":999,"REV_AT_EPOCH":22705,"BSTAR":-2.9074e-05,"MEAN_MOTION_DOT":2e-08,"MEAN_MOTION_DDOT":0.0},{"OBJECT_NAME":"ONEWEB-0288","OBJECT_ID":"2021-075D","EPOCH":"2026-04-28T02:00:05.878368","MEAN_MOTION":13.12443499,"ECCENTRICITY":0.0001523,"INCLINATION":87.8994,"RA_OF_ASC_NODE":0.6116,"ARG_OF_PERICENTER":83.9711,"MEAN_ANOMALY":276.1591,"EPHEMERIS_TYPE":0,"CLASSIFICATION_TYPE":"U","NORAD_CAT_ID":49078,"ELEMENT_SET_NO":999,"REV_AT_EPOCH":22861,"BSTAR":-0.0015593000000000002,"MEAN_MOTION_DOT":-5.48e-06,"MEAN_MOTION_DDOT":0.0},{"OBJECT_NAME":"ONEWEB-0289","OBJECT_ID":"2021-075E","EPOCH":"2026-04-28T05:44:38.126688","MEAN_MOTION":13.17648826,"ECCENTRICITY":0.0001591,"INCLINATION":87.9186,"RA_OF_ASC_NODE":15.8058,"ARG_OF_PERICENTER":67.6284,"MEAN_ANOMALY":292.5016,"EPHEMERIS_TYPE":0,"CLASSIFICATION_TYPE":"U","NORAD_CAT_ID":49079,"ELEMENT_SET_NO":999,"REV_AT_EPOCH":22762,"BSTAR":0.00017577,"MEAN_MOTION_DOT":8.1e-07,"MEAN_MOTION_DDOT":0.0},{"OBJECT_NAME":"ONEWEB-0290","OBJECT_ID":"2021-075F","EPOCH":"2026-04-28T05:05:56.930208","MEAN_MOTION":13.17651913,"ECCENTRICITY":0.000164,"INCLINATION":87.919,"RA_OF_ASC_NODE":15.7812,"ARG_OF_PERICENTER":63.0904,"MEAN_ANOMALY":297.0395,"EPHEMERIS_TYPE":0,"CLASSIFICATION_TYPE":"U","NORAD_CAT_ID":49080,"ELEMENT_SET_NO":999,"REV_AT_EPOCH":22703,"BSTAR":0.00011335,"MEAN_MOTION_DOT":5.7e-07,"MEAN_MOTION_DDOT":0.0}]